{"fetched_at":"2026-03-29T16:36:15Z","count":15609,"tles":[{"name":"STARLINK-35135","line1":"1 65629U 25210H   26087.77382949  .00038636  00000+0  13092-2 0  9992","line2":"2 65629  53.1587 218.3876 0001043  84.6146 275.4974 15.30216282 30653","category":"Starlink"}]}